ONEWEB-0371             
1 49297U 21090U   25062.89830724 -.00000017  00000+0 -74830-4 0  9994
2 49297  87.9188  38.4345 0002005  81.6048 278.5312 13.19724506164428
ONEWEB-0372             
1 49298U 21090V   25062.86316927  .00001297  00000+0  31580-2 0  9998
2 49298  87.9325   8.0405 0002155  82.0612 278.0766 13.20781509167755
ONEWEB-0373             
1 49299U 21090W   25062.89015888 -.00000033  00000+0 -11357-3 0  9994
2 49299  87.9319   8.0472 0001711  86.3058 273.8271 13.20770970168947
ONEWEB-0374             
1 49300U 21090X   25062.93916538  .00000077  00000+0  17430-3 0  9998
2 49300  87.9048  23.1979 0001759  99.6270 260.5058 13.14505279165780
ONEWEB-0375             
1 49301U 21090Y   25062.87753074  .00000082  00000+0  16873-3 0  9992
2 49301  87.9320   8.0271 0001282  92.0513 268.0768 13.20771081168449
ONEWEB-0376             
1 49302U 21090Z   25062.89672668  .00000000  00000+0 -32056-4 0  9997
2 49302  87.9181  38.4262 0002168  84.4097 275.7283 13.19724053164424
ONEWEB-0377             
1 49303U 21090AA  25062.86345533 -.00002320  00000+0 -57377-2 0  9992
2 49303  87.9317   8.0218 0001553  70.1066 290.0235 13.20779418168434
ONEWEB-0378             
1 49304U 21090AB  25062.88556044  .00000031  00000+0  44971-4 0  9999
2 49304  87.9321   8.0242 0001769  82.8035 277.3299 13.20772293167703
